     2.100          NAVIGATION                              RINEX VERSION / TYPE
fic2rin                                 03/13/2013 00:16:54 PGM / RUN BY / DATE
                                                            END OF HEADER
14 13  3 12 14  0  0.0  .220906920731D-03  .113686837722D-12  .000000000000D+00
     .600000000000D+02 -.516250000000D+02  .466555148180D-08  .964311994117D+00
    -.268965959549D-05  .670285930391D-02  .360049307346D-05  .515371276665D+04
     .223200000000D+06 -.651925802231D-07  .207812302607D+01  .428408384323D-07
     .974787350686D+00  .320812500000D+03 -.202467424319D+01 -.844428030960D-08
    -.431446542909D-09  .100000000000D+01  .173100000000D+04  .000000000000D+00
     .240000000000D+01  .000000000000D+00 -.884756445885D-08  .600000000000D+02
     .216006000000D+06  .400000000000D+01
15 13  3 12 14  0  0.0 -.111267901957D-03 -.136424205266D-11  .000000000000D+00
     .780000000000D+02 -.391562500000D+02  .553523056457D-08  .461525755143D+00
    -.203214585781D-05  .536164373625D-02  .230967998505D-05  .515371751213D+04
     .223200000000D+06  .558793544769D-07  .198071410643D+01  .651925802231D-07
     .941406652726D+00  .319781250000D+03  .155128383183D+00 -.887786979891D-08
    -.354657630057D-09  .100000000000D+01  .173100000000D+04  .000000000000D+00
     .240000000000D+01  .000000000000D+00 -.102445483208D-07  .780000000000D+02
     .216006000000D+06  .400000000000D+01
16 13  3 12 14  0  0.0 -.252596568316D-03 -.113686837722D-12  .000000000000D+00
     .340000000000D+02  .815000000000D+02  .404659712844D-08  .216866632488D+01
     .427104532719D-05  .704207422677D-02  .783428549767D-05  .515360055161D+04
     .223200000000D+06 -.912696123123D-07 -.213277592805D+01  .102445483208D-06
     .983817173031D+00  .241875000000D+03  .451852399523D-01 -.792675875275D-08
     .508949771229D-09  .100000000000D+01  .173100000000D+04  .000000000000D+00
     .240000000000D+01  .000000000000D+00 -.977888703346D-08  .340000000000D+02
     .216006000000D+06  .400000000000D+01
17 13  3 12 14  0  0.0  .411360524595D-04 -.386535248253D-11  .000000000000D+00
     .830000000000D+02 -.477812500000D+02  .493234830925D-08  .110677531471D+01
    -.255368649960D-05  .825703237206D-02  .411644577980D-05  .515359051895D+04
     .223200000000D+06 -.124797224998D-06 -.109465272994D+01  .800937414169D-07
     .964625357021D+00  .300468750000D+03 -.221188477534D+01 -.854964184119D-08
    -.319299014371D-09  .100000000000D+01  .173100000000D+04  .000000000000D+00
     .240000000000D+01  .000000000000D+00 -.102445483208D-07  .830000000000D+02
     .216006000000D+06  .400000000000D+01
18 13  3 12 14  0  0.0  .243567395955D-03  .181898940355D-11  .000000000000D+00
     .101000000000D+03  .934062500000D+02  .533736517983D-08  .261647081545D+01
     .469572842121D-05  .138520355104D-01  .782683491707D-05  .515376993752D+04
     .223200000000D+06  .149011611938D-07  .962392977679D+00 -.230967998505D-06
     .927760425609D+00  .208156250000D+03 -.212417795034D+01 -.830034574272D-08
     .454304637897D-09  .100000000000D+01  .173100000000D+04  .000000000000D+00
     .240000000000D+01  .000000000000D+00 -.107102096081D-07  .101000000000D+03
     .216006000000D+06  .400000000000D+01
19 13  3 12 14  0  0.0 -.355749391019D-03 -.318323145621D-11  .000000000000D+00
     .870000000000D+02 -.553750000000D+02  .491020452973D-08  .446730354672D+00
    -.286288559437D-05  .898742815480D-02  .395625829697D-05  .515367260361D+04
     .223200000000D+06  .856816768646D-07 -.104245603523D+01  .875443220139D-07
     .961923661856D+00  .303593750000D+03  .280192546116D+00 -.853249826994D-08
    -.325370695853D-09  .100000000000D+01  .173100000000D+04  .000000000000D+00
     .240000000000D+01  .000000000000D+00 -.149011611938D-07  .870000000000D+02
     .216006000000D+06  .400000000000D+01
20 13  3 12 14  0  0.0  .878293067217D-04  .170530256582D-11  .000000000000D+00
     .940000000000D+02  .103781250000D+03  .539701052144D-08 -.310262033602D+01
     .541843473911D-05  .554849358741D-02  .746548175812D-05  .515378832626D+04
     .223200000000D+06  .912696123123D-07  .908871241998D+00 -.447034835815D-07
     .928505410789D+00  .216250000000D+03  .129632475004D+01 -.849178228825D-08
     .475734101949D-09  .100000000000D+01  .173100000000D+04  .000000000000D+00
     .240000000000D+01  .000000000000D+00 -.791624188423D-08  .940000000000D+02
     .216006000000D+06  .400000000000D+01
21 13  3 12 14  0  0.0 -.285623595119D-03 -.227373675443D-11  .000000000000D+00
     .590000000000D+02 -.533125000000D+02  .484913055718D-08 -.256847532888D+01
    -.306777656078D-05  .200356250862D-01  .125207006931D-04  .515372977257D+04
     .223200000000D+06  .275671482086D-06 -.855386823895D-01 -.173225998878D-06
     .932054106263D+00  .117093750000D+03 -.216594366317D+01 -.791890128260D-08
    -.739316509786D-10  .100000000000D+01  .173100000000D+04  .000000000000D+00
     .240000000000D+01  .000000000000D+00 -.111758708954D-07  .590000000000D+02
     .216006000000D+06  .400000000000D+01
22 13  3 12 14  0  0.0  .160922296345D-03  .102318153949D-11  .000000000000D+00
     .660000000000D+02  .969687500000D+02  .550487215716D-08  .202081351607D+01
     .499188899994D-05  .629450299311D-02  .760145485401D-05  .515365787125D+04
     .223200000000D+06 -.838190317154D-07  .965153969303D+00 -.188127160072D-06
     .925499064397D+00  .215093750000D+03 -.204250583651D+01 -.855785646907D-08
     .500020827875D-09  .100000000000D+01  .173100000000D+04  .000000000000D+00
     .240000000000D+01  .000000000000D+00 -.172294676304D-07  .660000000000D+02
     .216006000000D+06  .400000000000D+01
23 13  3 12 14  0  0.0  .105714425445D-03 -.363797880709D-11  .000000000000D+00
     .550000000000D+02 -.530937500000D+02  .510521265260D-08 -.122068868887D-01
    -.291131436825D-05  .824855873361D-02  .312179327011D-05  .515373553658D+04
     .223200000000D+06  .484287738800D-07  .202076794032D+01  .391155481339D-07
     .956318682877D+00  .313312500000D+03 -.291383474288D+01 -.868143304510D-08
    -.422874757288D-09  .100000000000D+01  .173100000000D+04  .000000000000D+00
     .240000000000D+01  .000000000000D+00 -.200234353542D-07  .550000000000D+02
     .216006000000D+06  .400000000000D+01
24 13  3 12 14  0  0.0 -.254437327385D-05 -.682121026330D-12  .000000000000D+00
     .690000000000D+02 -.658125000000D+02  .416981654674D-08 -.789317045903D+00
    -.343099236488D-05  .788532197475D-03  .126641243696D-04  .515370243454D+04
     .223200000000D+06  .596046447754D-07  .304713187229D+01 -.521540641785D-07
     .959500725731D+00  .136531250000D+03  .223833040482D+00 -.787497088129D-08
    -.380372986919D-09  .100000000000D+01  .173100000000D+04  .000000000000D+00
     .240000000000D+01  .000000000000D+00  .325962901115D-08  .690000000000D+02
     .216006000000D+06  .400000000000D+01
25 13  3 12 14  0  0.0  .772792845964D-04  .329691829393D-11  .000000000000D+00
     .800000000000D+02  .747812500000D+02  .421946147179D-08 -.278081308533D+01
     .393390655518D-05  .230496528093D-02  .865571200848D-05  .515357220459D+04
     .223200000000D+06  .558793544769D-08 -.218851235932D+01 -.372529029846D-08
     .971974870198D+00  .219437500000D+03  .558603503781D+00 -.793425906517D-08
     .620025826564D-09  .100000000000D+01  .173100000000D+04  .000000000000D+00
     .240000000000D+01  .000000000000D+00  .558793544769D-08  .800000000000D+02
     .216006000000D+06  .400000000000D+01
26 13  3 12 14  0  0.0 -.695092603564D-04  .144382283906D-10  .000000000000D+00
     .930000000000D+02 -.518437500000D+02  .466948021688D-08 -.943636625567D-01
    -.255741178989D-05  .212625922868D-01  .417977571487D-05  .515365232277D+04
     .223200000000D+06 -.199303030968D-06  .209974879252D+01  .264495611191D-06
     .979564654503D+00  .309250000000D+03  .122370686881D+01 -.868107588737D-08
    -.425017703693D-09  .100000000000D+01  .173100000000D+04  .000000000000D+00
     .240000000000D+01  .000000000000D+00 -.605359673500D-08  .930000000000D+02
     .216006000000D+06  .400000000000D+01
27 13  3 12 14  0  0.0 -.183100346476D-03  .147792889038D-11  .000000000000D+00
     .600000000000D+02  .811250000000D+02  .541629703908D-08  .208809806612D+01
     .423565506935D-05  .593694357667D-02  .803358852863D-05  .515364920998D+04
     .223200000000D+06 -.117346644402D-06 -.217224442647D+01 -.122934579849D-06
     .976807355284D+00  .233093750000D+03  .831137095899D+00 -.797390357366D-08
     .597167731576D-09  .100000000000D+01  .173100000000D+04  .000000000000D+00
     .340000000000D+01  .630000000000D+02 -.190921127796D-07  .600000000000D+02
     .216006000000D+06  .400000000000D+01
28 13  3 12 14  0  0.0  .240248627961D-03  .329691829393D-11  .000000000000D+00
     .970000000000D+02  .798437500000D+02  .408981321428D-08  .190686722186D+01
     .390410423279D-05  .186254455475D-01  .777095556259D-05  .515363524437D+04
     .223200000000D+06  .147148966789D-06 -.212643584883D+01 -.409781932831D-06
     .982238627370D+00  .237468750000D+03 -.177562460143D+01 -.781389690874D-08
     .648955603034D-09  .100000000000D+01  .173100000000D+04  .000000000000D+00
     .240000000000D+01  .000000000000D+00 -.107102096081D-07  .970000000000D+02
     .216006000000D+06  .400000000000D+01
29 13  3 12 14  0  0.0  .415975693613D-03  .386535248253D-11  .000000000000D+00
     .105000000000D+03 -.438437500000D+02  .483234414367D-08 -.226569380326D+01
    -.217184424400D-05  .196229305584D-02  .357441604137D-05  .515367714500D+04
     .223200000000D+06  .149011611938D-07 -.108590922699D+01  .540167093277D-07
     .965247402954D+00  .310937500000D+03 -.109593892751D+01 -.839784980415D-08
    -.184650548579D-09  .100000000000D+01  .173100000000D+04  .000000000000D+00
     .240000000000D+01  .000000000000D+00 -.977888703346D-08  .105000000000D+03
     .216006000000D+06  .400000000000D+01
